ONEWEB-0012             
1 44057U 19010A   26168.10118277  .00000085  00000+0  18913-3 0  9998
2 44057  87.9099 228.8025 0001938  85.4271 274.7081 13.16594553351559
ONEWEB-0010             
1 44058U 19010B   26168.12651306  .00000001  00000+0 -31271-4 0  9998
2 44058  87.9099 228.7931 0001877 106.7443 253.3894 13.16595205351601
ONEWEB-0008             
1 44059U 19010C   26168.15184221  .00000113  00000+0  26325-3 0  9995
2 44059  87.9095 228.7837 0002323  98.1896 261.9499 13.16595962351725
ONEWEB-0007             
1 44060U 19010D   26167.95875895 -.00000042  00000+0 -14549-3 0  9996
2 44060  87.9003 259.2666 0001667  98.8702 261.2617 13.15549203351347
ONEWEB-0006             
1 44061U 19010E   26167.96270819 -.00000080  00000+0 -24670-3 0  9991
2 44061  87.9016 259.2300 0001868 103.4182 256.7157 13.15549125351391
ONEWEB-0011             
1 44062U 19010F   26168.31130632  .00000154  00000+0  37497-3 0  9991
2 44062  87.9015 259.1704 0002088 105.2638 254.8723 13.15547413351430
ONEWEB-0013             
1 45131U 20008A   26168.09362411 -.00000649  00000+0 -19216-2 0  9994
2 45131  87.8523  52.8441 0002263  54.6440 305.4898 13.09457880306055
ONEWEB-0017             
1 45132U 20008B   26168.07608492  .00000600  00000+0  16821-2 0  9999
2 45132  87.8834  36.2911 0001659  88.1581 271.9736 13.10375384307931
ONEWEB-0020             
1 45133U 20008C   26168.12249083  .00003174  00000+0  90495-2 0  9991
2 45133  87.8836  36.2805 0001771  81.5863 278.5465 13.10408646308336
ONEWEB-0021             
1 45134U 20008D   26168.13747109  .00001400  00000+0  39716-2 0  9994
2 45134  87.8835  36.2932 0001815  80.6911 279.4421 13.10388828308645
ONEWEB-0023             
1 45136U 20008F   26168.07192580  .00001180  00000+0  33426-2 0  9993
2 45136  87.8840  36.2881 0001905  78.5866 281.5476 13.10382590308061
ONEWEB-0024             
1 45137U 20008G   26168.12093500  .00006709  00000+0  19151-1 0  9992
2 45137  87.8849  36.2720 0002054  82.4421 277.6939 13.10436221308230
ONEWEB-0025             
1 45138U 20008H   26168.12065904  .00006905  00000+0  19712-1 0  9991
2 45138  87.8853  36.2628 0002579  88.5805 271.5617 13.10435347308568
ONEWEB-0026             
1 45139U 20008J   26168.08224994 -.00000443  00000+0 -12846-2 0  9998
2 45139  87.8884  21.0892 0001809  90.7533 269.3803 13.11416219311098
ONEWEB-0028             
1 45140U 20008K   26168.51545447  .00000244  00000+0  65203-3 0  9990
2 45140  87.8878  21.0114 0001974  68.1693 291.9645 13.11413347308662
ONEWEB-0032             
1 45141U 20008L   26168.07788600  .00000644  00000+0  18073-2 0  9998
2 45141  87.8833  36.2924 0002007  69.6915 290.4428 13.10374379308283
ONEWEB-0033             
1 45142U 20008M   26168.12912419  .00005195  00000+0  14829-1 0  9992
2 45142  87.8829  36.2956 0002154 100.3454 259.7916 13.10414748308205
ONEWEB-0035             
1 45143U 20008N   26168.07290547  .00000425  00000+0  11798-2 0  9992
2 45143  87.8832  36.2934 0001719  85.1371 274.9953 13.10376973307925
ONEWEB-0036             
1 45144U 20008P   26168.04797475 -.00000585  00000+0 -17225-2 0  9992
2 45144  87.8848  36.3101 0001935  77.4874 282.6470 13.09982731308342
ONEWEB-0038             
1 45145U 20008Q   26168.09256751 -.00000219  00000+0 -65484-3 0  9990
2 45145  87.8900  21.0960 0000384  17.9092 342.2050 13.11418895310319
ONEWEB-0039             
1 45146U 20008R   26168.13251148 -.00000395  00000+0 -11676-2 0  9999
2 45146  87.8833  36.2791 0001910  66.6330 293.4998 13.10375430308150
ONEWEB-0040             
1 45147U 20008S   26167.89677889 -.00000546  00000+0 -15988-2 0  9994
2 45147  87.8826  36.3351 0001636  79.9024 280.2288 13.10390462307829
ONEWEB-0043             
1 45149U 20008U   26168.12745846  .00005223  00000+0  14907-1 0  9996
2 45149  87.8827  36.2823 0002213  69.7276 290.4089 13.10422139308171
ONEWEB-0044             
1 45150U 20008V   26168.00305256  .00000629  00000+0  17659-2 0  9995
2 45150  87.8841  36.3036 0001773  76.2453 283.8872 13.10373307308455
ONEWEB-0045             
1 45151U 20008W   26168.08734241 -.00000565  00000+0 -16290-2 0  9995
2 45151  87.8896  21.0794 0001772  81.5962 278.5367 13.11417468310395
ONEWEB-0047             
1 45152U 20008X   26168.07261985  .00000919  00000+0  25957-2 0  9996
2 45152  87.8840  36.2893 0001606  85.0241 275.1070 13.10380832308189
ONEWEB-0048             
1 45153U 20008Y   26168.14413436  .00000196  00000+0  52611-3 0  9990
2 45153  87.8833  36.2962 0001730  83.2277 276.9047 13.10376758307809
ONEWEB-0049             
1 45154U 20008Z   26168.14731514  .00001381  00000+0  39193-2 0  9997
2 45154  87.8830  36.2850 0002224  80.7041 279.4337 13.10384987308021
ONEWEB-0051             
1 45155U 20008AA  26168.08565367 -.00000433  00000+0 -12577-2 0  9998
2 45155  87.8887  21.0873 0001830  85.1292 275.0045 13.11418812311073
ONEWEB-0052             
1 45156U 20008AB  26168.09117899 -.00000484  00000+0 -14239-2 0  9996
2 45156  87.8842  36.2789 0001802  94.2942 265.8391 13.10361400307920
ONEWEB-0053             
1 45157U 20008AC  26168.12416455  .00002557  00000+0  72834-2 0  9997
2 45157  87.8836  36.3014 0002557  72.5685 287.5722 13.10403787307909
